[{"OBJECT_NAME":"TEVEL2-1","OBJECT_ID":"2025-052H","EPOCH":"2026-03-15T06:29:44.167776","MEAN_MOTION":15.30592341,"ECCENTRICITY":0.00049633,"INCLINATION":97.3993,"RA_OF_ASC_NODE":330.3708,"ARG_OF_PERICENTER":94.8167,"MEAN_ANOMALY":265.364,"EPHEMERIS_TYPE":0,"CLASSIFICATION_TYPE":"U","NORAD_CAT_ID":63217,"ELEMENT_SET_NO":999,"REV_AT_EPOCH":5571,"BSTAR":0.00072443373,"MEAN_MOTION_DOT":0.00021393,"MEAN_MOTION_DDOT":0},{"OBJECT_NAME":"TEVEL2-3","OBJECT_ID":"2025-052J","EPOCH":"2026-03-15T06:26:03.552288","MEAN_MOTION":15.30628704,"ECCENTRICITY":0.00049501,"INCLINATION":97.3998,"RA_OF_ASC_NODE":330.3805,"ARG_OF_PERICENTER":95.7764,"MEAN_ANOMALY":264.4042,"EPHEMERIS_TYPE":0,"CLASSIFICATION_TYPE":"U","NORAD_CAT_ID":63218,"ELEMENT_SET_NO":999,"REV_AT_EPOCH":5571,"BSTAR":0.00072418384,"MEAN_MOTION_DOT":0.0002141,"MEAN_MOTION_DDOT":0},{"OBJECT_NAME":"TEVEL2-2","OBJECT_ID":"2025-052K","EPOCH":"2026-03-15T04:56:31.886304","MEAN_MOTION":15.30592748,"ECCENTRICITY":0.00049081,"INCLINATION":97.3992,"RA_OF_ASC_NODE":330.3072,"ARG_OF_PERICENTER":94.9965,"MEAN_ANOMALY":265.1836,"EPHEMERIS_TYPE":0,"CLASSIFICATION_TYPE":"U","NORAD_CAT_ID":63219,"ELEMENT_SET_NO":999,"REV_AT_EPOCH":5570,"BSTAR":0.00072501126,"MEAN_MOTION_DOT":0.0002141,"MEAN_MOTION_DDOT":0},{"OBJECT_NAME":"TEVEL2-9","OBJECT_ID":"2025-052AD","EPOCH":"2026-03-15T06:23:00.837024","MEAN_MOTION":15.28864884,"ECCENTRICITY":0.00083609,"INCLINATION":97.4057,"RA_OF_ASC_NODE":329.927,"ARG_OF_PERICENTER":109.3936,"MEAN_ANOMALY":250.8209,"EPHEMERIS_TYPE":0,"CLASSIFICATION_TYPE":"U","NORAD_CAT_ID":63237,"ELEMENT_SET_NO":999,"REV_AT_EPOCH":5566,"BSTAR":0.00071928494,"MEAN_MOTION_DOT":0.0002015,"MEAN_MOTION_DDOT":0},{"OBJECT_NAME":"TEVEL2-7","OBJECT_ID":"2025-052AE","EPOCH":"2026-03-15T05:24:54.057024","MEAN_MOTION":15.28640447,"ECCENTRICITY":0.00085451,"INCLINATION":97.4059,"RA_OF_ASC_NODE":329.8375,"ARG_OF_PERICENTER":108.9982,"MEAN_ANOMALY":251.2184,"EPHEMERIS_TYPE":0,"CLASSIFICATION_TYPE":"U","NORAD_CAT_ID":63238,"ELEMENT_SET_NO":999,"REV_AT_EPOCH":5565,"BSTAR":0.0007240001,"MEAN_MOTION_DOT":0.00020145,"MEAN_MOTION_DDOT":0},{"OBJECT_NAME":"TEVEL2-8","OBJECT_ID":"2025-052AF","EPOCH":"2026-03-15T05:35:07.520352","MEAN_MOTION":15.28620496,"ECCENTRICITY":0.0008498,"INCLINATION":97.4063,"RA_OF_ASC_NODE":329.8248,"ARG_OF_PERICENTER":109.9098,"MEAN_ANOMALY":250.3058,"EPHEMERIS_TYPE":0,"CLASSIFICATION_TYPE":"U","NORAD_CAT_ID":63239,"ELEMENT_SET_NO":999,"REV_AT_EPOCH":5565,"BSTAR":0.00068613489,"MEAN_MOTION_DOT":0.00019073,"MEAN_MOTION_DDOT":0},{"OBJECT_NAME":"HADES-ICM","OBJECT_ID":"2025-052BN","EPOCH":"2026-03-15T05:19:51.653568","MEAN_MOTION":15.58682409,"ECCENTRICITY":0.00091133,"INCLINATION":97.3927,"RA_OF_ASC_NODE":334.8766,"ARG_OF_PERICENTER":100.0841,"MEAN_ANOMALY":260.1444,"EPHEMERIS_TYPE":0,"CLASSIFICATION_TYPE":"U","NORAD_CAT_ID":63492,"ELEMENT_SET_NO":999,"REV_AT_EPOCH":5600,"BSTAR":0.0021513653,"MEAN_MOTION_DOT":0.0016869,"MEAN_MOTION_DDOT":0},{"OBJECT_NAME":"INNOSAT 16 (RS92S7)","OBJECT_ID":"2025-155C","EPOCH":"2026-03-15T07:07:22.429632","MEAN_MOTION":15.24278527,"ECCENTRICITY":0.00116521,"INCLINATION":97.4466,"RA_OF_ASC_NODE":41.8574,"ARG_OF_PERICENTER":147.0682,"MEAN_ANOMALY":213.1283,"EPHEMERIS_TYPE":0,"CLASSIFICATION_TYPE":"U","NORAD_CAT_ID":64878,"ELEMENT_SET_NO":999,"REV_AT_EPOCH":6636,"BSTAR":0.00032672391,"MEAN_MOTION_DOT":7.924e-5,"MEAN_MOTION_DDOT":0},{"OBJECT_NAME":"GEOSCAN 6 (RS92S6)","OBJECT_ID":"2025-155D","EPOCH":"2026-03-15T06:45:03.994272","MEAN_MOTION":15.28137464,"ECCENTRICITY":0.00094196,"INCLINATION":97.4463,"RA_OF_ASC_NODE":42.6581,"ARG_OF_PERICENTER":137.6149,"MEAN_ANOMALY":222.582,"EPHEMERIS_TYPE":0,"CLASSIFICATION_TYPE":"U","NORAD_CAT_ID":64879,"ELEMENT_SET_NO":999,"REV_AT_EPOCH":6641,"BSTAR":0.00049227208,"MEAN_MOTION_DOT":0.00013455,"MEAN_MOTION_DDOT":0},{"OBJECT_NAME":"GEOSCAN 1 (RS92S1)","OBJECT_ID":"2025-155E","EPOCH":"2026-03-15T06:00:04.447008","MEAN_MOTION":15.28569089,"ECCENTRICITY":0.00093419,"INCLINATION":97.4462,"RA_OF_ASC_NODE":42.7041,"ARG_OF_PERICENTER":137.7349,"MEAN_ANOMALY":222.4612,"EPHEMERIS_TYPE":0,"CLASSIFICATION_TYPE":"U","NORAD_CAT_ID":64880,"ELEMENT_SET_NO":999,"REV_AT_EPOCH":6641,"BSTAR":0.0005429972,"MEAN_MOTION_DOT":0.0001505,"MEAN_MOTION_DDOT":0},{"OBJECT_NAME":"239ALFEROV (RS61S)","OBJECT_ID":"2025-155F","EPOCH":"2026-03-15T06:28:59.709792","MEAN_MOTION":15.30141613,"ECCENTRICITY":0.00091098,"INCLINATION":97.4466,"RA_OF_ASC_NODE":43.0113,"ARG_OF_PERICENTER":136.2978,"MEAN_ANOMALY":223.8985,"EPHEMERIS_TYPE":0,"CLASSIFICATION_TYPE":"U","NORAD_CAT_ID":64881,"ELEMENT_SET_NO":999,"REV_AT_EPOCH":6643,"BSTAR":0.00062882775,"MEAN_MOTION_DOT":0.00018311,"MEAN_MOTION_DDOT":0},{"OBJECT_NAME":"GEOSCAN 2 (RS92S2)","OBJECT_ID":"2025-155Q","EPOCH":"2026-03-15T06:16:17.382720","MEAN_MOTION":15.2887095,"ECCENTRICITY":0.0009043,"INCLINATION":97.446,"RA_OF_ASC_NODE":42.8285,"ARG_OF_PERICENTER":125.9961,"MEAN_ANOMALY":234.2118,"EPHEMERIS_TYPE":0,"CLASSIFICATION_TYPE":"U","NORAD_CAT_ID":64890,"ELEMENT_SET_NO":999,"REV_AT_EPOCH":6642,"BSTAR":0.00053956742,"MEAN_MOTION_DOT":0.00015092,"MEAN_MOTION_DDOT":0},{"OBJECT_NAME":"GEOSCAN 5 (RS92S5)","OBJECT_ID":"2025-155R","EPOCH":"2026-03-15T06:41:52.981152","MEAN_MOTION":15.30474083,"ECCENTRICITY":0.00078017,"INCLINATION":97.4458,"RA_OF_ASC_NODE":43.1208,"ARG_OF_PERICENTER":139.317,"MEAN_ANOMALY":220.8655,"EPHEMERIS_TYPE":0,"CLASSIFICATION_TYPE":"U","NORAD_CAT_ID":64891,"ELEMENT_SET_NO":999,"REV_AT_EPOCH":6644,"BSTAR":0.00059935287,"MEAN_MOTION_DOT":0.00017622,"MEAN_MOTION_DDOT":0},{"OBJECT_NAME":"GEOSCAN 4 (RS92S4)","OBJECT_ID":"2025-155S","EPOCH":"2026-03-15T06:30:21.949632","MEAN_MOTION":15.30578068,"ECCENTRICITY":0.00077878,"INCLINATION":97.4462,"RA_OF_ASC_NODE":43.1384,"ARG_OF_PERICENTER":139.8254,"MEAN_ANOMALY":220.3563,"EPHEMERIS_TYPE":0,"CLASSIFICATION_TYPE":"U","NORAD_CAT_ID":64892,"ELEMENT_SET_NO":999,"REV_AT_EPOCH":6644,"BSTAR":0.00061227721,"MEAN_MOTION_DOT":0.00018062,"MEAN_MOTION_DDOT":0},{"OBJECT_NAME":"GEOSCAN 3 (RS92S3)","OBJECT_ID":"2025-155T","EPOCH":"2026-03-15T05:51:33.229440","MEAN_MOTION":15.31948043,"ECCENTRICITY":0.00075419,"INCLINATION":97.4455,"RA_OF_ASC_NODE":43.3129,"ARG_OF_PERICENTER":139.5953,"MEAN_ANOMALY":220.585,"EPHEMERIS_TYPE":0,"CLASSIFICATION_TYPE":"U","NORAD_CAT_ID":64893,"ELEMENT_SET_NO":999,"REV_AT_EPOCH":6645,"BSTAR":0.00070330822,"MEAN_MOTION_DOT":0.00021671,"MEAN_MOTION_DDOT":0},{"OBJECT_NAME":"INNOSAT 3 (RS92S0)","OBJECT_ID":"2025-155U","EPOCH":"2026-03-15T06:12:23.986944","MEAN_MOTION":15.37157884,"ECCENTRICITY":0.00073586,"INCLINATION":97.4423,"RA_OF_ASC_NODE":44.0182,"ARG_OF_PERICENTER":133.8998,"MEAN_ANOMALY":226.2855,"EPHEMERIS_TYPE":0,"CLASSIFICATION_TYPE":"U","NORAD_CAT_ID":64894,"ELEMENT_SET_NO":999,"REV_AT_EPOCH":6650,"BSTAR":0.001135508,"MEAN_MOTION_DOT":0.00041432,"MEAN_MOTION_DDOT":0}]
