TEVEL2-1                
1 63217U 25052H   26074.27065009  .00021393  00000+0  72443-3 0  9991
2 63217  97.3993 330.3708 0004963  94.8167 265.3640 15.30592341 55719
TEVEL2-3                
1 63218U 25052J   26074.26809667  .00021410  00000+0  72418-3 0  9999
2 63218  97.3998 330.3805 0004950  95.7764 264.4042 15.30628704 55711
TEVEL2-2                
1 63219U 25052K   26074.20592461  .00021410  00000+0  72501-3 0  9998
2 63219  97.3992 330.3072 0004908  94.9965 265.1836 15.30592748 55705
TEVEL2-9                
1 63237U 25052AD  26074.26598191  .00020150  00000+0  71928-3 0  9992
2 63237  97.4057 329.9270 0008360 109.3936 250.8209 15.28864884 55667
TEVEL2-7                
1 63238U 25052AE  26074.22562566  .00020145  00000+0  72400-3 0  9996
2 63238  97.4059 329.8375 0008545 108.9982 251.2184 15.28640447 55659
TEVEL2-8                
1 63239U 25052AF  26074.23272593  .00019073  00000+0  68613-3 0  9995
2 63239  97.4063 329.8248 0008498 109.9098 250.3058 15.28620496 55652
HADES-ICM               
1 63492U 25052BN  26074.22212562  .00168690  00000+0  21514-2 0  9993
2 63492  97.3927 334.8766 0009113 100.0841 260.1444 15.58682409 56008
INNOSAT 16 (RS92S7)     
1 64878U 25155C   26074.29678738  .00007924  00000+0  32672-3 0  9994
2 64878  97.4466  41.8574 0011652 147.0682 213.1283 15.24278527 66367
GEOSCAN 6 (RS92S6)      
1 64879U 25155D   26074.28129623  .00013455  00000+0  49227-3 0  9998
2 64879  97.4463  42.6581 0009419 137.6149 222.5820 15.28137464 66418
GEOSCAN 1 (RS92S1)      
1 64880U 25155E   26074.25005147  .00015050  00000+0  54300-3 0  9992
2 64880  97.4462  42.7041 0009341 137.7349 222.4612 15.28569089 66418
239ALFEROV (RS61S)      
1 64881U 25155F   26074.27013553  .00018311  00000+0  62883-3 0  9993
2 64881  97.4466  43.0113 0009109 136.2978 223.8985 15.30141613 66433
GEOSCAN 2 (RS92S2)      
1 64890U 25155Q   26074.26131230  .00015092  00000+0  53957-3 0  9990
2 64890  97.4460  42.8285 0009043 125.9961 234.2118 15.28870950 66421
GEOSCAN 5 (RS92S5)      
1 64891U 25155R   26074.27908543  .00017622  00000+0  59935-3 0  9994
2 64891  97.4458  43.1208 0007801 139.3170 220.8655 15.30474083 66448
GEOSCAN 4 (RS92S4)      
1 64892U 25155S   26074.27108738  .00018062  00000+0  61228-3 0  9990
2 64892  97.4462  43.1384 0007787 139.8254 220.3563 15.30578068 66441
GEOSCAN 3 (RS92S3)      
1 64893U 25155T   26074.24413460  .00021671  00000+0  70331-3 0  9994
2 64893  97.4455  43.3129 0007541 139.5953 220.5850 15.31948043 66451
INNOSAT 3 (RS92S0)      
1 64894U 25155U   26074.25861096  .00041432  00000+0  11355-2 0  9995
2 64894  97.4423  44.0182 0007358 133.8998 226.2855 15.37157884 66501
